OID_,COLLEGE,CAMPUS,ADDRESS,CITY,ZIPCODE,PLUS_FOUR,GEOG_TOWN,MAIN_TEL,NCES_ID,TYPE,NCES_TYPE,CATEGORY,DEGREEOFFR,AWARDSOFFR,LARGEPROG,CAMPUSSETT,CAMPUSHOUS,lon,lat
1,Cape Cod Electrical School, ,9 New Venture Drive,South Dennis,2660, ,DENNIS,(508) 760-1983, ,PRI,"< 2-year, Private for-profit",Private Occupational Program,C, ,Electrician,Town: Fringe,No,-70.141716,41.6895447
2,Cape Cod Community College,Main Campus,2240 Iyannough Road,West Barnstable,2668,1599,BARNSTABLE,(508) 362-2131,165194,PUB,"2-year, Public",Community College,"C, A",Less than one year certificate;Associate's degree, ,City: Small,No,-70.3367233,41.6922722
3,Rob Roy Academy,Fall River,260 S Main Street,Fall River,2720, ,FALL RIVER,(508) 672-4751,165750,PRI,"< 2-year, Private for-profit",Private Vocational School,C,Less than one year certificate;One but less than two years certificate,"Cosmetology/Cosmetologist, General",Suburb: Large,No,-71.1577301,41.6988716
4,Diman Regional Technical Institute Division of Continuing Education, ,1082 Davol Street,Fall River,2720, ,FALL RIVER,(508) 678-2891,165608,PUB,"< 2-year, Public",Adult Education,C,One but less than two years certificate,Licensed Practical/Vocational Nurse Training,Suburb: Large,No,-71.1550446,41.7184372
5,Bristol Community College,Fall River,777 Elsbree Street,Fall River,2720, ,FALL RIVER,(508) 678-2811,165033,PUB,"2-year, Public",Community College,"C, A",Less than one year certificate;One but less than two years certificate;Associate's degree, ,Suburb: Large,No,-71.1199493,41.7213631
6,Massachusetts Maritime Academy, ,101 Academy Drive,Buzzards Bay,2532, ,BOURNE,(508) 830-5000,166692,PUB,"4-year, Public",State University,"B, M",Bachelor's degree;Master's degree, ,Suburb: Midsize,Yes,-70.621788,41.7407455
7,Upper Cape Cod Regional Vocational Technical School Practical Nursing Program, ,220 Sandwich Road,Bourne,2532, ,BOURNE,(508) 759-7711,373711,PUB,"< 2-year, Public",Medical Program,C,One but less than two years certificate,Licensed Practical/Vocational Nurse Training,Suburb: Midsize,No,-70.5787277,41.745266
8,Motoring Technical Training Institute, ,1241 Fall River Avenue,Seekonk,2771, ,SEEKONK,(508) 336-6611,414124,PRI,"< 2-year, Private for-profit",Technical Institute,C,One but less than two years certificate,"Electrician, Heating, Air Conditioning, Ventilation and Refrigeration Maintenance Technology",Suburb: Large,No,-71.3251114,41.7919159
9,Bristol Community College,Taunton,2 Hamilton Street,Taunton,2780, ,TAUNTON,(774) 357-3767,165033,PUB,"2-year, Public",Community College,"C, A",Less than one year certificate;One but less than two years certificate;Associate's degree, ,Suburb: Large,No,-71.0954285,41.9091492
10,Massasoit Community College,Middleborough Center,49 Union Street,Middleborough,2346, ,MIDDLEBOROUGH,(508) 588-9100,166823,PUB,"2-year, Public",Community College,"C, A",Less than one year certificate;One but less than two years certificate;Associate's degree, ,Suburb: Large,No,-70.9123001,41.8923225
11,Rob Roy Academy,Taunton,1 School Street,Taunton,2780, ,TAUNTON,(508) 822-1405,168032,PRI,"< 2-year, Private for-profit",Private Vocational School,C,One but less than two years certificate,"Cosmetology/Cosmetologist, General",Suburb: Large,No,-71.0919647,41.9019356
12,Bristol Community College,Attleboro,11 Field Road,Attleboro,2703, ,ATTLEBORO,(508) 226-2484,165033,PUB,"2-year, Public",Community College,"C, A",Less than one year certificate;One but less than two years certificate;Associate's degree, ,Suburb: Large,No,-71.2736893,41.9477997
13,Spa Tech Institute,Plymouth,59 Industrial Park Road,Plymouth,2360, ,PLYMOUTH,(800)262-8530,445656,PRI,"< 2-year, Private for-profit",Private Vocational School,C,Less than one year certificate,Aesthetician/Esthetician and Skin Care Specialist,Suburb: Large,No,-70.7044373,41.9584618
14,Wheaton College, ,26 East Main Street,Norton,2766, ,NORTON,(508) 286-7722,168281,PRI,"4-year, Private not-for-profit",Liberal Arts College,B,Bachelor's degree, ,Suburb: Large,Yes,-71.1842499,41.9660835
15,Bridgewater State University, ,131 Summer Street,Bridgewater,2325, ,BRIDGEWATER,(508) 531-1000,165024,PUB,"4-year, Public",State University,"C, B, PBC, M, PMC",Less than one year certificate;Bachelor's degree;Postbaccalaureate certificate;Master's degree;Post-master's certificate,Education,Suburb: Large,Yes,-70.9745026,41.9875069
16,Southeastern Technical Institute, ,250 Foundry Street,South Easton,2375, ,EASTON,(508) 238-1860,167871,PUB,"< 2-year, Public",Technical Institute,C,Less than one year certificate;One but less than two years certificate,Licensed Practical/Vocational Nurse Training,Rural: Fringe,No,-71.0818634,42.0101013
17,Nichols College, ,121 Center Road,Dudley,1571, ,DUDLEY,(508) 213-1560,167260,PRI,"4-year, Private not-for-profit",Liberal Arts College,"A, B, M",Associate's degree;Bachelor's degree;Master's degree,Business Program,Suburb: Large,Yes,-71.9295654,42.0424194
18,Stonehill College, ,320 Washington Street,Easton,2357,100,EASTON,(508) 565-1000,167996,PRI,"4-year, Private not-for-profit",Liberal Arts College,"B, M",Less than one year certificate;Bachelor's degree;Master's degree, ,Suburb: Large,Yes,-71.0806122,42.0590248
19,Bay Path University, ,588 Longmeadow Street,Longmeadow,1106, ,LONGMEADOW,(413) 565-1000,164632,PRI,"4-year, Private not-for-profit","Women's Liberal Arts College, Coed Graduate School","C, A, B, PBC, M, PMC, D",Less than one year certificate;Associate's degree;Bachelor's degree;Postbaccalaureate certificate;Master's degree;Post-master's certificate;Doctor's degree - professional practice,Business,Suburb: Large,Yes,-72.583374,42.0551262
20,Massasoit Community College,Brockton,1 Massasoit Boulevard,Brockton,2302,3996,BROCKTON,(508) 588-9100,166823,PUB,"2-year, Public",Community College,"C, A",Less than one year certificate;One but less than two years certificate;Associate's degree, ,Suburb: Large,No,-70.9902954,42.0756493
21,Dean College, ,99 Main Street,Franklin,2038, ,FRANKLIN,(877) 879-3326,165574,PRI,"4-year, Private not-for-profit",Liberal Arts College,"C, A, B",Less than one year certificate;Associate's degree;Bachelor's degree, ,Suburb: Large,Yes,-71.3978806,42.0856476
22,Bay Path Adult Evening School, ,57 Old Muggett Hill Road,Charlton,1507,1331,CHARLTON,(508) 248-5971,457624,PUB,"< 2-year, Public",Adult Education,C,One but less than two years certificate,"Practical Nursing, Vocational Nursing and Nursing Assistants, Other",Rural: Fringe,No,-71.956955,42.1338806
23,American International College,Main Campus,1000 State Street,Springfield,1109, ,SPRINGFIELD,(413) 737-7000,164447,PRI,"4-year, Private not-for-profit",Liberal Arts College,"A, B, PBC, M, PMC, D",Associate's degree;Bachelor's degree;Postbaccalaureate certificate;Master's degree;Post-master's certificate;Doctor's degree - research/scholarship;Doctor's degree - professional practice, ,City: Midsize,Yes,-72.5585938,42.1126709
24,Western New England University, ,1215 Wilbraham Road,Springfield,1119,2684,SPRINGFIELD,(413) 782-3111,168254,PRI,"4-year, Private not-for-profit",Private University,"C, A, B, PBC, M, D",Less than one year certificate;Associate's degree;Bachelor's degree;Postbaccalaureate certificate;Master's degree;Doctor's degree - research/scholarship;Doctor's degree - professional practice, ,City: Midsize,Yes,-72.520668,42.1161041
25,American International College,Edgewood Gardens,125 Cortland Street,Springfield,1109, ,SPRINGFIELD,(800) 242-3142,164447,PRI,"4-year, Private not-for-profit",Liberal Arts College,"A, B, PBC, M, PMC, D",Associate's degree;Bachelor's degree;Postbaccalaureate certificate;Master's degree;Post-master's certificate;Doctor's degree - research/scholarship;Doctor's degree - professional practice, ,City: Midsize,Yes,-72.5543289,42.1183205
26,Porter And Chester Institute,Worcester,220 Brooks Street,Worcester,1606,1400,WORCESTER,(508) 304-6500,13017405,PRI,"< 2-year, Private for-profit",Technical Institute,C,One but less than two years certificate, ,City: Midsize,No,-71.7997894,42.3179245
27,Smith College, ,33 Elm Street,Northampton,1063, ,NORTHAMPTON,(413) 585-2700,167835,PRI,"4-year, Private not-for-profit",Women's Liberal Arts College,"B, PBC, M, PMC, D",Bachelor's degree;Postbaccalaureate certificate;Master's degree;Doctor's degree - research/scholarship, ,Suburb: Large,Yes,-72.635376,42.3188477
28,Hebrew College, ,160 Herrick Road,Newton Centre,2459, ,NEWTON,(617) 559-8600,166045,PRI,"4-year, Private not-for-profit",Divinity School,"B, PBC, M, PMC",Postbaccalaureate certificate;Master's degree,Jewish Studies,City: Small,No,-71.189209,42.325676
29,Gordon-Conwell Theological Seminary,Boston,90 Warren Street,Roxbury,2119, ,BOSTON,(617) 427-7293,165945,PRI,"4-year, Private not-for-profit",Divinity School,"PBC, M, D",Postbaccalaureate certificate;Master's degree;Doctor's degree,Evangelical Seminary,Suburb: Large,Yes,-71.0827332,42.3276482
30,Roxbury Community College, ,1234 Columbus Avenue,Roxbury Crossing,2120,3400,BOSTON,(617) 427-0060,167631,PUB,"2-year, Public",Community College,"C, A",Less than one year certificate;One but less than two years certificate;Associate's degree, ,City: Large,No,-71.0955276,42.3292427
31,Hampshire College, ,893 West Street,Amherst,1002, ,AMHERST,(413) 549-4600,166018,PRI,"4-year, Private not-for-profit",Liberal Arts College,B,Bachelor's degree, ,Suburb: Large,Yes,-72.5314713,42.325779
32,Anna Maria College, ,50 Sunset Lane,Paxton,1612,1198,PAXTON,(508) 849-3300,164492,PRI,"4-year, Private not-for-profit",Liberal Arts College,"B, M, PMC",Bachelor's degree;Postbaccalaureate certificate;Master's degree;Post-master's certificate, ,Rural: Fringe,Yes,-71.9189301,42.3305283
33,Westfield State University, ,577 Western Avenue,Westfield,1086,1630,WESTFIELD,(413) 572-5300,168263,PUB,"4-year, Public",State University,"B, PBC, M, PMC",Bachelor's degree;Postbaccalaureate certificate;Master's degree;Post-master's certificate,Education,Suburb: Large,Yes,-72.7955475,42.1324692
34,College of Our Lady of the Elms, ,291 Springfield Street,Chicopee,1013, ,CHICOPEE,(413) 594-2761,167394,PRI,"4-year, Private not-for-profit",Liberal Arts College,"C, A, B, PBC, M, PMC, D",Less than one year certificate;One but less than two years certificate;Associate's degree;Bachelor's degree;Postbaccalaureate certificate;Master's degree;Post-master's certificate;Doctor's degree - professional practice, ,Suburb: Large,Yes,-72.6003494,42.1416893
35,DiGrigoli School of Cosmetology, ,1578 Riverdale Street,West Springfield,1089, ,WEST SPRINGFIELD,(413) 827-0037,451255,PRI,"< 2-year, Private for-profit",Private Vocational School,C,One but less than two years certificate,"Cosmetology/Cosmetologist, General",Suburb: Large,No,-72.6302948,42.1463814
36,Monarch School of Cosmetology, ,"2701 Boston Road, Suite 2",Wilbraham,1095, ,WILBRAHAM,(413) 599-4600, ,PRI,"< 2-year, Private for-profit",Private Vocational School,C, ,Cosmetology,Town: Fringe,No,-72.4298935,42.1506615
37,Mafy's Nails Academy, ,2071 Main Street,Brockton,2301, ,BROCKTON,(781) 767-1111, ,PRI,"< 2-year, Private for-profit",Private Vocational School,C, ,Cosmetology,Suburb: Large,No,-71.0117722,42.0438538
38,Signature Healthcare Brockton Hospital School of Nursing, ,53 Adams Street,Brockton,2302, ,BROCKTON,(508) 941-7040,165060,PRI,"2-year, Private not-for-profit",Medical Program,C,Two but less than 4 years certificate,Registered Nursing/Registered Nurse,Suburb: Large,No,-70.992836,42.0880089
39,Tri County Regional Vocational Technical High School Adult Education, ,147 Pond Street,Franklin,2038, ,FRANKLIN,(508) 528-5400,459408,PUB,"< 2-year, Public",Adult Education,C,One but less than two years certificate,"Practical Nursing, Vocational Nursing and Nursing Assistants, Other",Suburb: Large,No,-71.4214935,42.0950089
40,Springfield College,Main Campus,263 Alden Street,Springfield,1109, ,SPRINGFIELD,(413) 748-3000,167899,PRI,"4-year, Private not-for-profit",Private College,"B, M, PMC, D",Bachelor's degree;Postbaccalaureate certificate;Master's degree;Post-master's certificate;Doctor's degree - research/scholarship;Doctor's degree - professional practice, ,City: Midsize,Yes,-72.5566483,42.1021729
41,Cambridge College,Springfield,1500 Main Street,Springfield,1115, ,SPRINGFIELD,(413) 747-0204,165167,PRI,"4-year, Private not-for-profit",Private College,"C, B, PBC, M, PMC, D",Less than one year certificate;Associate's degree;Bachelor's degree;Postbaccalaureate certificate;Master's degree;Post-master's certificate;Doctor's degree - research/scholarship, ,City: Midsize,No,-72.5919189,42.102417
42,Springfield Technical Community College, ,1 Armory Square,Springfield,1102,9000,SPRINGFIELD,(413) 781-7822,167905,PUB,"2-year, Public",Community College,"C, A",Less than one year certificate;One but less than two years certificate;Associate's degree, ,City: Midsize,No,-72.5784836,42.1088028
43,University of Massachusetts Nantucket Field Station,Nantucket Field Station,180 Polpis Road,Nantucket,2554, ,NANTUCKET,(508) 228-9475,166638,PUB,"4-year, Public",University of Massachusetts,"M, D",Less than one year certificate;Bachelor's degree;Postbaccalaureate certificate;Master's degree;Post-master's certificate;Doctor's degree - research/scholarship;Doctor's degree - professional practice,Intercampus Marine Science Graduate Program,City: Large,Yes,-70.0404892,41.2960205
44,University of Massachusetts Dartmouth School for Marine Science and Technology,New Bedford - West,706 South Rodney French Boulevard,New Bedford,2744,1221,NEW BEDFORD,(508) 999-8193,167987,PUB,"4-year, Public",University of Massachusetts,"C, B, PBC, M, PMC, D",Less than one year certificate;One but less than two years certificate;Bachelor's degree;Postbaccalaureate certificate;Master's degree;Post-master's certificate;Doctor's degree - research/scholarship;Doctor's degree - professional practice,Marine Science & Technology,Suburb: Midsize,Yes,-70.9102783,41.5951042
45,University of Massachusetts Dartmouth,Dartmouth,285 Old Westport Road,North Dartmouth,2747,2300,DARTMOUTH,(508) 999-8000,167987,PUB,"4-year, Public",University of Massachusetts,"C, B, PBC, M, PMC, D",Less than one year certificate;One but less than two years certificate;Bachelor's degree;Postbaccalaureate certificate;Master's degree;Post-master's certificate;Doctor's degree - research/scholarship;Doctor's degree - professional practice, ,Suburb: Midsize,Yes,-71.0055542,41.629921
46,Bristol Community College,New Bedford,800 Purchase Street,New Bedford,2740, ,NEW BEDFORD,(508) 984-8226,165033,PUB,"2-year, Public",Community College,"C, A",Less than one year certificate;One but less than two years certificate;Associate's degree, ,Suburb: Large,No,-70.925621,41.6352501
47,Cape Cod Community College,Satellite Campus Hyannis,540 Main Street,Hyannis,2601,1599,BARNSTABLE,(508) 362-2131,165194,PUB,"2-year, Public",Community College,"C, A",Less than one year certificate;Associate's degree, ,City: Small,No,-70.2893982,41.6509361
48,University of Massachusetts School of Law,UMass Dartmouth,333 Faunce Corner Road,North Dartmouth,2747, ,DARTMOUTH,(508) 999-8000,167987,PUB,"4-year, Public",University of Massachusetts,D,Less than one year certificate;One but less than two years certificate;Bachelor's degree;Postbaccalaureate certificate;Master's degree;Post-master's certificate;Doctor's degree - research/scholarship;Doctor's degree - professional practice,Law,Suburb: Midsize,No,-70.9880905,41.6613655
49,Rob Roy Academy,New Bedford,1872 Acushnet Avenue,New Bedford,2720, ,NEW BEDFORD,(508) 995-8711,167039,PRI,"< 2-year, Private for-profit",Private Vocational School,C,One but less than two years certificate,"Cosmetology/Cosmetologist, General",Suburb: Midsize,No,-70.9251785,41.6719131
50,University of Massachusetts Dartmouth Center for Innovation and Entrepreneurship,Fall River,151 Martine Street,Fall River,2723, ,FALL RIVER,(508) 910-9800,167987,PUB,"4-year, Public",University of Massachusetts,"C, B, PBC, M, PMC, D",Less than one year certificate;One but less than two years certificate;Bachelor's degree;Postbaccalaureate certificate;Master's degree;Post-master's certificate;Doctor's degree - research/scholarship;Doctor's degree - professional practice,Innovation & Entrepreneurship,Suburb: Midsize,Yes,-71.1273956,41.6803703
51,Mount Holyoke College, ,50 College Street,South Hadley,1075, ,SOUTH HADLEY,(413) 538-2000,166939,PRI,"4-year, Private not-for-profit",Women's Liberal Arts College,"B, PBC, M",Bachelor's degree;Master's degree, ,Suburb: Large,Yes,-72.5756912,42.2566261
52,Laboure College of Healthcare, ,303 Adams Street,Milton,2186, ,MILTON,(617) 202-3149,165264,PRI,"4-year, primarily associate's, Private not-for-profit",Medical Program,"C, A, B",Less than one year certificate;Associate's degree;Bachelor's degree, ,Suburb: Large,No,-71.0582962,42.2608452
53,Rob Roy Academy,Worcester,150 Pleasant Sreett,Worcester,1609, ,WORCESTER,(508) 799-2111,373696,PRI,"< 2-year, Private for-profit",Private Vocational School,C,Less than one year certificate;One but less than two years certificate,"Cosmetology/Cosmetologist, General",City: Midsize,No,-71.807663,42.2636375
54,New England School of Acupuncture at MCPHS,Worcester,19 Norwich Street,Worcester,1608, ,WORCESTER,(508) 373-5607,166656,PRI,"4-year, Private not-for-profit",Graduate Medical Program,"C, M, D",Less than one year certificate;One but less than two years certificate;Bachelor's degree;Postbaccalaureate certificate;Master's degree;Post-master's certificate;Doctor's degree - research/scholarship;Doctor's degree - professional practice;Doctor's degre,Accupuncture,City: Midsize,No,-71.800621,42.2639656
55,Massachusetts College of Pharmacy and Health Science,Worcester,19 Foster Street,Worcester,1608, ,WORCESTER,(508) 373-5607,166656,PRI,"4-year, Private not-for-profit",Medical School,"C, B, PBC, M, PMC, D",Less than one year certificate;One but less than two years certificate;Bachelor's degree;Postbaccalaureate certificate;Master's degree;Post-master's certificate;Doctor's degree - research/scholarship;Doctor's degree - professional practice;Doctor's degre,Pharmacy/Health Science,City: Midsize,Yes,-71.8004761,42.2643585
56,Worcester State University, ,486 Chandler Street,Worcester,1602,2597,WORCESTER,(508) 929-8000,168430,PUB,"4-year, Public",State University,"B, PBC, M, PMC",Less than one year certificate;Bachelor's degree;Postbaccalaureate certificate;Master's degree;Post-master's certificate,Education,City: Midsize,Yes,-71.8422089,42.2686691
57,Bancroft School of Massage Therapy, ,333 Shrewsbury Street,Worcester,1604, ,WORCESTER,(508) 757-7923,164599,PRI,"< 2-year, Private for-profit",Medical Program,C,Less than one year certificate,Massage Therapy/Therapeutic Massage,City: Midsize,No,-71.7782211,42.2690315
58,Eastern Nazarene College, ,23 East Elm Avenue,Quincy,2170, ,QUINCY,(617) 745-3000,165644,PRI,"4-year, Private not-for-profit",Liberal Arts College,"A, B, M",Associate's degree;Bachelor's degree;Postbaccalaureate certificate;Master's degree, ,Suburb: Large,Yes,-71.0110092,42.2711906
59,Worcester Polytechnic Institute, ,100 Institute Road,Worcester,1609, ,WORCESTER,(508) 831-5000,168421,PRI,"4-year, Private not-for-profit",Research University,"B, PBC, M, D",Bachelor's degree;Postbaccalaureate certificate;Master's degree;Post-master's certificate;Doctor's degree - research/scholarship,Technical Program,City: Midsize,Yes,-71.809639,42.2737999
60,University of Massachusetts Chan Medical School,Worcester,55 Lake Avenue North,Worcester,1655, ,WORCESTER,(508) 856-1542,166708,PUB,"4-year, Public",University of Massachusetts,"M, PMC, D",Master's degree;Post-master's certificate;Doctor's degree - research/scholarship;Doctor's degree - professional practice,Medicine & Biomedical Science,City: Midsize,No,-71.7617645,42.2776108
61,Toni & Guy Hairdressing Academy,Worcester,6 Park Avenue,Worcester,1605, ,WORCESTER,(508) 756-6060,434344,PRI,"< 2-year, Private for-profit",Private Vocational School,C,One but less than two years certificate,"Cosmetology/Cosmetologist, General",City: Midsize,No,-71.8081894,42.2847748
62,Spa Tech Institute,Westboro,227 Turnpike Road,Westboro,1581, ,WESTBOROUGH,(508) 836-8864,445647,PRI,"< 2-year, Private for-profit",Private Vocational School,C,Less than one year certificate,Aesthetician/Esthetician and Skin Care Specialist,Suburb: Large,No,-71.6357346,42.286129
63,Massachusetts Bay Community College,Framingham,19 Flagg Drive,Framingham,1702,5928,FRAMINGHAM,(508) 270-4000,166647,PUB,"2-year, Public",Community College,"C, A",Less than one year certificate;One but less than two years certificate;Associate's degree, ,Suburb: Large,No,-71.4140625,42.29216
64,Wellesley College, ,106 Central Street,Wellesley,2481,8203,WELLESLEY,(781) 283-1000,168218,PRI,"4-year, Private not-for-profit",Women's Liberal Arts College,B,Bachelor's degree, ,Suburb: Large,Yes,-71.3058014,42.293499
65,Franklin W. Olin College of Engineering, ,1000 Olin Way,Needham,2492,1245,NEEDHAM,(781) 292-2300,441982,PRI,"4-year, Private not-for-profit",Private College,B,Bachelor's degree,Engineering,Suburb: Large,Yes,-71.2639542,42.2934456
66,Assumption University, ,500 Salisbury Street,Worcester,1609,1296,WORCESTER,(508) 767-7000,164562,PRI,"4-year, Private not-for-profit",Liberal Arts College,"C, A, B, PBC, M, PMC",Bachelor's degree;Postbaccalaureate certificate;Master's degree;Post-master's certificate, ,City: Midsize,Yes,-71.8289795,42.2941742
67,William James College, ,1 Wells Avenue,Newton,2459, ,NEWTON,(617) 327-6777,166717,PRI,"4-year, Private not-for-profit",Private College,"B, PBC, M, D",Bachelor's degree;Postbaccalaureate certificate;Master's degree;Post-master's certificate;Doctor's degree - professional practice,Psychology,City: Small,No,-71.2032928,42.2950478
68,Framingham State University, ,100 State Street,Framingham,1701,9101,FRAMINGHAM,(508) 620-1220,165866,PUB,"4-year, Public",State University,"B, PBC, M",Less than one year certificate;Bachelor's degree;Postbaccalaureate certificate;Master's degree;Post-master's certificate,Education,City: Small,Yes,-71.4360809,42.2980042
69,Babson College, ,231 Forest Street,Wellesley,2457,310,WELLESLEY,(781) 235-1200,164580,PRI,"4-year, Private not-for-profit",Business School,"B, M, PMC",Bachelor's degree;Postbaccalaureate certificate;Master's degree,Business,Suburb: Large,Yes,-71.2661972,42.2979469
70,Jupiter Beauty Academy, ,95 Freeport Street,Boston,2122,2834,BOSTON,(617) 288-1811,484057,PRI,"< 2-year, Private for-profit",Private Vocational School,C,Less than one year certificate;One but less than two years certificate,Nail Technician/Specialist and Manicurist,City: Large,No,-71.0565567,42.3063049
71,Massachusetts Bay Community College,Wellesley Hills,50 Oakland Street,Wellesley Hills,2481, ,WELLESLEY,(781) 239-3000,166647,PUB,"2-year, Public",Community College,"C, A",Less than one year certificate;One but less than two years certificate;Associate's degree, ,Suburb: Large,No,-71.263649,42.3119926
72,Quinsigamond Community College, ,670 West Boylston Street,Worcester,1606, ,WORCESTER,(508) 854-4262,167534,PUB,"2-year, Public",Community College,"C, A",Less than one year certificate;One but less than two years certificate;Associate's degree, ,City: Midsize,No,-71.7949295,42.3137665
73,University of Massachusetts Boston,Boston,100 Morrissey Boulevard,Boston,2125,3393,BOSTON,(617) 287-5000,166638,PUB,"4-year, Public",University of Massachusetts,"C, B, PBC, M, PMC, D",Less than one year certificate;Bachelor's degree;Postbaccalaureate certificate;Master's degree;Post-master's certificate;Doctor's degree - research/scholarship;Doctor's degree - professional practice, ,City: Large,Yes,-71.0397415,42.3143082
74,Hellenic College-Holy Cross Greek Orthodox School of Theology, ,50 Goddard Avenue,Brookline,2445, ,BROOKLINE,(617) 731-3500,166054,PRI,"4-year, Private not-for-profit",Liberal Arts College,"B, M",Bachelor's degree;Postbaccalaureate certificate;Master's degree,Greek Orthodox Studies,Suburb: Large,Yes,-71.1292496,42.3170319
75,Empire Beauty School,Boston,30 West Street,Boston,2111, ,BOSTON,(508) 370-7447,164845,PRI,"< 2-year, Private for-profit",Private Vocational School,C,One but less than two years certificate,"Cosmetology/Cosmetologist, General",City: Large,No,-71.0627136,42.354599
76,Fisher College, ,118 Beacon Street,Boston,2116, ,BOSTON,(617) 236-8800,165802,PRI,"4-year, Private not-for-profit",Liberal Arts College,"C, A, B, M",One but less than two years certificate;Associate's degree;Bachelor's degree;Master's degree, ,City: Large,Yes,-71.0739822,42.3552856
77,Suffolk University, ,73 Tremont Street,Boston,2108, ,BOSTON,(617) 573-8000,168005,PRI,"4-year, Private not-for-profit",Research University,"C, A, B, PBC, M, PMC, D",Less than one year certificate;One but less than two years certificate;Associate's degree;Two but less than 4 years certificate;Bachelor's degree;Postbaccalaureate certificate;Master's degree;Doctor's degree - research/scholarship;Doctor's degree - profe, ,City: Large,Yes,-71.0608139,42.3578148
78,Massachusetts Institute of Technology, ,77 Massachusetts Avenue,Cambridge,2139,4307,CAMBRIDGE,(617) 253-1000,166683,PRI,"4-year, Private not-for-profit",Research University,"B, M, D",Bachelor's degree;Master's degree;Doctor's degree - research/scholarship, ,City: Midsize,Yes,-71.0919571,42.3597069
79,North Bennet Street School, ,150 North Street,Boston,2109, ,BOSTON,(617) 227-0155,167297,PRI,"2-year, Private not-for-profit",Technical Institute,C,One but less than two years certificate;Two but less than 4 years certificate,Furniture Design and Manufacturing,City: Large,No,-71.0545502,42.3628387
80,Brandeis University, ,415 South Street,Waltham,2454,9110,WALTHAM,(781) 736-2000,165015,PRI,"4-year, Private not-for-profit",Research University,"B, M, PMC, D",Bachelor's degree;Master's degree;Post-master's certificate;Doctor's degree - research/scholarship, ,City: Small,Yes,-71.2600632,42.3657646
81,Harvard University,Business School,117 Western Ave/Soldiers Field,Boston,2163, ,BOSTON,(617) 495-6128,166027,PRI,"4-year, Private not-for-profit",Research University,"A, B, PBC, M, PMC, D",Less than one year certificate;Associate's degree;Bachelor's degree;Postbaccalaureate certificate;Master's degree;Post-master's certificate;Doctor's degree - research/scholarship;Doctor's degree - professional practice, ,City: Midsize,Yes,-71.1227798,42.3663902
82,NV My Hair Academy, ,296 Newton Street,Waltham,2453, ,WALTHAM,(617) 834-3333, ,PRI,"< 2-year, Private for-profit",Private Vocational School,C, ,Cosmetology,City: Small,No,-71.2309952,42.3670883
83,Assabet After Dark, ,215 Fitchburg Street,Marlborough,1752, ,MARLBOROUGH,(508) 263-9651,164535,PUB,"< 2-year, Public",Adult Education,C,One but less than two years certificate,Licensed Practical/Vocational Nurse Training,Suburb: Large,No,-71.566803,42.3678322
84,Cambridge College,Main Campus,500 Rutherford Avenue,Boston,2129, ,BOSTON,(800) 877-4723,165167,PRI,"4-year, Private not-for-profit",Private College,"C, B, PBC, M, PMC, D",Less than one year certificate;Associate's degree;Bachelor's degree;Postbaccalaureate certificate;Master's degree;Post-master's certificate;Doctor's degree - research/scholarship, ,City: Large,No,-71.0729599,42.3813972
85,Cambridge College,Lawrence,280 Merrimack Street,Lawrence,1843, ,LAWRENCE,1 (800) 877-4723,165167,PRI,"4-year, Private not-for-profit",Private College,"C, B, PBC, M, PMC, D",Less than one year certificate;Associate's degree;Bachelor's degree;Postbaccalaureate certificate;Master's degree;Post-master's certificate;Doctor's degree - research/scholarship,Education,City: Midsize,No,-71.1484756,42.7031441
86,Hult International Business School, ,1 Education Street,Cambridge,2141, ,CAMBRIDGE,(617) 746-1990,164368,PRI,"4-year, Private not-for-profit",Business School,"B, M",Bachelor's degree;Master's degree,Business,City: Midsize,Yes,-71.0707016,42.3700027
87,Harvard University,School of Government,"79 JFK Street
",Cambridge,2138, ,CAMBRIDGE,(617) 495-1100,166027,PRI,"4-year, Private not-for-profit",Research University,"A, B, PBC, M, PMC, D",Less than one year certificate;Associate's degree;Bachelor's degree;Postbaccalaureate certificate;Master's degree;Post-master's certificate;Doctor's degree - research/scholarship;Doctor's degree - professional practice, ,City: Midsize,Yes,-71.1220245,42.3709869
88,Amherst College, ,220 South Pleasant Street,Amherst,1002,5000,AMHERST,(413) 542-2000,164465,PRI,"4-year, Private not-for-profit",Liberal Arts College,B,Bachelor's degree, ,Suburb: Large,Yes,-72.5187988,42.3694344
89,MGH Institute of Health Professions, ,36 1st Avenue,Boston,2129, ,BOSTON,(617) 726-3140,166869,PRI,"4-year, Private not-for-profit",Medical School,"B, M, PMC, D",Bachelor's degree;Master's degree;Post-master's certificate;Doctor's degree - research/scholarship;Doctor's degree - professional practice;Doctor's degree - other, ,City: Large,No,-71.0539169,42.3749466
90,Blackstone Valley Vocational Regional School Post-Secondary Nursing Program, ,65 Pleasant Street,Upton,1568, ,UPTON,(508) 529-2403,457615,PUB,"< 2-year, Public",Medical Program,C,One but less than two years certificate,Licensed Practical/Vocational Nurse Training,Suburb: Large,No,-71.6164398,42.1628838
91,Porter And Chester Institute,Canton,5 Campanelli Circle,Canton,2021,1400,CANTON,(781) 830-0350,13017406,PRI,"< 2-year, Private for-profit",Technical Institute,C,One but less than two years certificate, ,Suburb: Large,No,-71.0730133,42.1661377
92,FINE Mortuary College, ,150 Kerry Place,Norwood,2090, ,NORWOOD,(781) 461-9080,436599,PRI,"2-year, Private for-profit",Private Occupational Program,A,Associate's degree,Mortuary Science,Suburb: Large,No,-71.1917343,42.1809959
93,Martin Electrical School, ,130 Kerry Place,Norwood,2062, ,NORWOOD,(781) 769-2376, ,PRI,"< 2-year, Private for-profit",Private Occupational Program,C, ,Electrician,Suburb: Small,No,-71.1930618,42.1811676
94,Blue Hills Regional Technical School Practical Nursing Program, ,800 Randolph Street,Canton,2021, ,CANTON,(781) 828-5800,243799,PUB,"< 2-year, Public",Medical Program,C,One but less than two years certificate,Licensed Practical/Vocational Nurse Training,Suburb: Large,No,-71.1041412,42.1821327
95,Massasoit Community College,Canton,900 Randolph Street,Canton,2021,1372,CANTON,(508) 588-9100,166823,PUB,"2-year, Public",Community College,"C, A",Less than one year certificate;One but less than two years certificate;Associate's degree, ,Suburb: Large,No,-71.1006699,42.1836357
96,Porter And Chester Institute,Chicopee,1984 Westover Road,Chicopee,1022,2480,CHICOPEE,(413) 459-9760, ,PRI,"< 2-year, Private for-profit",Technical Institute,C,One but less than two years certificate, ,Suburb: Large,No,-72.5617599,42.1858826
97,Peterson School,Westwood,350 University Avenue,Westwood,2090, ,WESTWOOD,(781) 320-3292, ,PRI,"< 2-year, Private for-profit",Private Occupational Program,C, ,Electric/Plumbing/Facilities,Suburb: Small,No,-71.1543198,42.1984406
98,Holyoke Community College, ,303 Homestead Avenue,Holyoke,1040, ,HOLYOKE,(413) 538-7000,166133,PUB,"2-year, Public",Community College,"C, A",Less than one year certificate;One but less than two years certificate;Associate's degree, ,Suburb: Large,No,-72.6518173,42.1949043
99,"Springfield College-Regional, Online, and Continuing Education", ,263 Alden Street,Springfield,1109, ,SPRINGFIELD,(413) 748-3000,475273,PRI,"4-year, Private not-for-profit",Adult Education,"B, M",Bachelor's degree;Master's degree,Human Services,City: Midsize,No,-72.556694,42.1020355
100,Bentley University, ,175 Forest Street,Waltham,2452,4705,WALTHAM,(781) 891-2000,164739,PRI,"4-year, Private not-for-profit",Business School,"C, A, B, PBC, M, PMC, D",Less than one year certificate;Bachelor's degree;Postbaccalaureate certificate;Master's degree;Post-master's certificate;Doctor's degree - research/scholarship,Business,City: Small,Yes,-71.2201691,42.3888016
101,Toni & Guy Hairdressing Academy,Braintree,727A Granite Street,Braintree,2184, ,BRAINTREE,(781) 428-3099,434344,PRI,"< 2-year, Private for-profit",Private Vocational School,C,One but less than two years certificate,Cosmetology,Suburb: Midsize,No,-71.0239792,42.2073784
102,Bard College - Holyoke Microcollege, ,247 Cabot Street,Holyoke,1040,3927,HOLYOKE,(413) 532-2900,18908801,PRI,"2-year, Private not-for-profit",Adult Education,A,Associate's degree, ,Suburb: Large,No,-72.6176758,42.2060432
103,Bard College at Simon's Rock, ,84 Alford Road,Great Barrington,1230,1990,GREAT BARRINGTON,(413) 528-0771,167792,PRI,"4-year, primarily associate's, Private not-for-profit",Liberal Arts College,"A, B",Associate's degree;Bachelor's degree, ,Town: Distant,Yes,-73.380249,42.2087402
104,College of the Holy Cross, ,1 College Street,Worcester,1610,2395,WORCESTER,(508) 793-2011,166124,PRI,"4-year, Private not-for-profit",Liberal Arts College,B,Bachelor's degree, ,City: Midsize,Yes,-71.8082657,42.2375412
105,Curry College, ,1071 Blue Hill Avenue,Milton,2186, ,MILTON,(617) 333-2210,165529,PRI,"4-year, Private not-for-profit",Liberal Arts College,"B, M, PMC",Bachelor's degree;Master's degree;Post-master's certificate,Medical Program,Suburb: Large,Yes,-71.1147308,42.2408333
106,Massachusetts Bay Community College,Ashland - Auto Tech Center,250 Eliot Street,Ashland,1721,2389,ASHLAND,(781) 239-3030,166647,PUB,"2-year, Public",Community College,"C, A",Less than one year certificate;One but less than two years certificate;Associate's degree, ,Suburb: Large,No,-71.4360352,42.2420998
107,Tufts University,School of Veterinary Medicine,200 Westboro Road,North Grafton,1536, ,GRAFTON,(508) 839-7920,168148,PRI,"4-year, Private not-for-profit",Research University,"C, B, PBC, M, PMC, D",Less than one year certificate;Bachelor's degree;Postbaccalaureate certificate;Master's degree;Post-master's certificate;Doctor's degree - research/scholarship;Doctor's degree - professional practice, ,Suburb: Large,Yes,-71.6770172,42.246212
108,Massachusetts School of Barbering, ,58 General James C. McConville Way,Quincy,2169, ,QUINCY,(617) 770-4444,166805,PRI,"< 2-year, Private for-profit",Private Vocational School,C,One but less than two years certificate,Barbering/Barber,Suburb: Large,No,-71.0017548,42.2476387
109,Boston College,Main Campus,140 Commonwealth Avenue,Chestnut Hill,2467, ,NEWTON,(617) 552-8000,164924,PRI,"4-year, Private not-for-profit",Research University,"C, B, PBC, M, PMC, D",Less than one year certificate;Bachelor's degree;Postbaccalaureate certificate;Master's degree;Post-master's certificate;Doctor's degree - research/scholarship;Doctor's degree - professional practice, ,City: Small,Yes,-71.1687546,42.3350143
110,Harvard University,School of Public Health,677 Huntington Ave,Boston,2115, ,BOSTON,(617) 432-1031,166027,PRI,"4-year, Private not-for-profit",Research University,"A, B, PBC, M, PMC, D",Less than one year certificate;Associate's degree;Bachelor's degree;Postbaccalaureate certificate;Master's degree;Post-master's certificate;Doctor's degree - research/scholarship;Doctor's degree - professional practice, ,City: Midsize,Yes,-71.102951,42.3353043
111,Harvard University,Medical School,25 Shattuck Street,Boston,2115,6092,BOSTON,(617) 432-1000,166027,PRI,"4-year, Private not-for-profit",Research University,"A, B, PBC, M, PMC, D",Less than one year certificate;Associate's degree;Bachelor's degree;Postbaccalaureate certificate;Master's degree;Post-master's certificate;Doctor's degree - research/scholarship;Doctor's degree - professional practice, ,City: Midsize,Yes,-71.1041107,42.3355675
112,Boston University Chobanian & Avedisian School of Medicine,Medical Campus,72 E Concord Street,Boston,2118, ,BOSTON,(617) 638-5300,164988,PRI,"4-year, Private not-for-profit",Medical School,"C, B, PBC, M, PMC, D",Less than one year certificate;One but less than two years certificate;Two but less than 4 years certificate;Bachelor's degree;Postbaccalaureate certificate;Master's degree;Post-master's certificate;Doctor's degree - research/scholarship;Doctor's degree, ,City: Large,Yes,-71.0724564,42.3363152
113,Massachusetts College of Pharmacy and Health Science,Boston,179 Longwood Avenue,Boston,2115, ,BOSTON,(617) 879-5964,166656,PRI,"4-year, Private not-for-profit",Medical School,"C, B, PBC, M, PMC, D",Less than one year certificate;One but less than two years certificate;Bachelor's degree;Postbaccalaureate certificate;Master's degree;Post-master's certificate;Doctor's degree - research/scholarship;Doctor's degree - professional practice;Doctor's degre,Pharmacy/Health Science,City: Large,Yes,-71.10112,42.3366814
114,Massachusetts College of Art and Design, ,621 Huntington Avenue,Boston,2115, ,BOSTON,(617) 879-7000,166674,PUB,"4-year, Public",State University,"C, B, PBC, M",Less than one year certificate;One but less than two years certificate;Bachelor's degree;Postbaccalaureate certificate;Master's degree,Visual Art,City: Large,Yes,-71.0987625,42.3367882
115,Wentworth Institute of Technology, ,550 Huntington Avenue,Boston,2115, ,BOSTON,(617) 442-9010,168227,PRI,"4-year, Private not-for-profit",Technical College,"C, A, B, M",Less than one year certificate;Associate's degree;Bachelor's degree;Master's degree,Engineering,City: Large,Yes,-71.0952454,42.3368645
116,School of the Museum of Fine Arts, ,230 The Fenway,Boston,2115, ,BOSTON,(617) 267-6100,168148,PRI,"4-year, Private not-for-profit",Visual Arts College,"B, M",Less than one year certificate;Bachelor's degree;Postbaccalaureate certificate;Master's degree;Post-master's certificate;Doctor's degree - research/scholarship;Doctor's degree - professional practice,Visual Arts,City: Large,No,-71.0965958,42.3385735
117,Boston Graduate School of Psychoanalysis Inc, ,1581 Beacon Street,Brookline,2446, ,BROOKLINE,(617) 277-3915,164915,PRI,"4-year, Private not-for-profit",Graduate Medical Program,"M, PMC, D",Master's degree;Post-master's certificate;Doctor's degree - professional practice;Doctor's degree - other,Psychoanalysis,Suburb: Large,No,-71.1330948,42.3391762
118,Pope St John XXIII National Seminary, ,558 South Avenue,Weston,2493, ,WESTON,(781) 899-5500,167464,PRI,"4-year, Private not-for-profit",Divinity School,M,Master's degree,Catholic Seminary,Suburb: Large,Yes,-71.3109818,42.3396111
119,Simmons University,Main Campus,300 The Fenway,Boston,2115,5898,BOSTON,(617) 521-2000,167783,PRI,"4-year, Private not-for-profit","Women's Liberal Arts College, Coed Graduate School","B, PBC, M, PMC, D",Bachelor's degree;Master's degree;Post-master's certificate;Doctor's degree - research/scholarship;Doctor's degree - professional practice, ,City: Large,Yes,-71.0998535,42.3393364
120,Northeastern University Professional Programs,Professional Advancement,360 Huntington Avenue,Boston,2115, ,BOSTON,(617) 373-2000,482705,PRI,"4-year, Private not-for-profit",Private University,"C, A, B, PBC, M, PMC, D",Less than one year certificate;One but less than two years certificate;Bachelor's degree;Postbaccalaureate certificate;Master's degree;Post-master's certificate;Doctor's degree - professional practice;Doctor's degree - other, ,City: Large,Yes,-71.0884171,42.3393555
121,Northeastern University,Main Campus,360 Huntington Avenue,Boston,2115, ,BOSTON,(617) 373-2000,167358,PRI,"4-year, Private not-for-profit",Research University,"B, M, PMC, D",Bachelor's degree;Master's degree;Post-master's certificate;Doctor's degree - research/scholarship;Doctor's degree - professional practice;Doctor's degree - other, ,City: Large,Yes,-71.0887451,42.3399506
122,The New England Conservatory of Music, ,290 Huntington Avenue,Boston,2115, ,BOSTON,(617) 585-1100,167057,PRI,"4-year, Private not-for-profit",Performing Arts College,"C, B, PBC, M, D",Less than one year certificate;Two but less than 4 years certificate;Bachelor's degree;Postbaccalaureate certificate;Master's degree;Doctor's degree - research/scholarship,Music,City: Large,Yes,-71.0863953,42.3409576
123,Emmanuel College, ,400 The Fenway,Boston,2115, ,BOSTON,(617) 735-9715,165671,PRI,"4-year, Private not-for-profit",Liberal Arts College,"B, PBC, M, PMC",Bachelor's degree;Postbaccalaureate certificate;Master's degree;Post-master's certificate, ,City: Large,Yes,-71.102417,42.3411331
124,Ali May Academy, ,1459 Hancock Street,Quincy,2169, ,QUINCY,(617) 786-8900, ,PRI,"< 2-year, Private for-profit",Private Vocational School,C, ,Cosmetology,Suburb: Large,No,-71.0024338,42.2485619
125,Clark University, ,950 Main Street,Worcester,1610,1477,WORCESTER,(508) 793-7711,165334,PRI,"4-year, Private not-for-profit",Research University,"C, B, PBC, M, PMC, D",Less than one year certificate;Bachelor's degree;Postbaccalaureate certificate;Master's degree;Post-master's certificate;Doctor's degree - research/scholarship, ,City: Midsize,Yes,-71.8239288,42.2513008
126,Quincy College, ,1250 Hancock Street,Quincy,2169, ,QUINCY,(800) 698-1700,167525,PUB,"4-year, primarily associate's, Public",Municipally Affiliated College,"C, A",Less than one year certificate;One but less than two years certificate;Associate's degree;Bachelor's degree, ,Suburb: Large,No,-71.0034866,42.2524681
127,JK Nails Academy, ,68 Millbury Street,Worcester,1610, ,WORCESTER,(508) 753-6500, ,PRI,"< 2-year, Private for-profit",Private Vocational School,C, ,Cosmetology,City: Midsize,No,-71.798912,42.2534294
128,Boston Baptist College, ,950 Metropolitan Avenue,Boston,2136, ,BOSTON,(617) 364-3510,164614,PRI,"4-year, Private not-for-profit",Divinity School,"C, A, B",One but less than two years certificate;Associate's degree;Bachelor's degree,Biblical Studies,City: Large,Yes,-71.1100616,42.2538147
129,Empire Beauty School,Malden,347 Pleasant Street,Malden,2148, ,MALDEN,(781) 397-7400,407179,PRI,"< 2-year, Private for-profit",Private Vocational School,C,One but less than two years certificate,"Cosmetology/Cosmetologist, General",Suburb: Large,No,-71.076622,42.4274483
130,New England Hair Academy, ,110 Florence Street,Malden,2148, ,MALDEN,(781) 324-6799,373678,PRI,"< 2-year, Private for-profit",Private Vocational School,C,Less than one year certificate;One but less than two years certificate,"Cosmetology/Cosmetologist, General",Suburb: Large,No,-71.0683899,42.4289665
131,National Aviation Academy of New England,Concord,130 Baker Ave Extension,Concord,1742, ,CONCORD,(781) 274-8448,165635,PRI,"2-year, Private for-profit",Technical Institute,C,Two but less than 4 years certificate,Airframe Mechanics and Aircraft Maintenance Technology/Technician,Suburb: Large,No,-71.3870697,42.4622192
132,North Shore Community College,Lynn Campus,300 Broad Street,Lynn,1901, ,LYNN,(781) 593-6722,167312,PUB,"2-year, Public",Community College,"C, A",Less than one year certificate;One but less than two years certificate;Associate's degree, ,Suburb: Large,No,-70.9441071,42.4607162
133,Mildred Elley,Pittsfield,100 West Street,Pittsfield,1201, ,PITTSFIELD,(413) 499-8618,425986,PRI,"< 2-year, Private for-profit",Technical Institute,C,One but less than two years certificate, ,City: Small,No,-73.2564774,42.4493217
134,Berkshire Community College, ,1350 West Street,Pittsfield,1201,5786,PITTSFIELD,(413) 499-4660,164775,PUB,"2-year, Public",Community College,"C, A",Less than one year certificate;One but less than two years certificate;Associate's degree, ,Rural: Fringe,No,-73.3152084,42.4597511
135,Northeastern University,Burlington,145 South Bedford Street,Burlington,1803, ,BURLINGTON,(781) 238-8400,167358,PRI,"4-year, Private not-for-profit",Research University,"B, M, PMC, D",Bachelor's degree;Master's degree;Post-master's certificate;Doctor's degree - research/scholarship;Doctor's degree - professional practice;Doctor's degree - other, ,City: Large,Yes,-71.1906738,42.4787827
136,Peterson School,Woburn,25 Montvale Road,Woburn,1801, ,WOBURN,(781) 938-5656, ,PRI,"< 2-year, Private for-profit",Private Occupational Program,C, ,Electric/Plumbing/Facilities,Suburb: Large,No,-71.1506424,42.4790764
137,Gould Construction Institute, ,"100 Unicorn Park Drive, Suite 2",Woburn,1801, ,WOBURN,(781) 270-9990, ,PRI,"< 2-year, Private for-profit",Private Occupational Program,C, ,Construction,Suburb: Large,No,-71.1143036,42.4810486
138,Simmons University,Residence Campus,321 Brookline Avenue,Boston,2215, ,BOSTON,(617) 521-2000,167783,PRI,"4-year, Private not-for-profit","Women's Liberal Arts College, Coed Graduate School","B, PBC, M, PMC, D",Bachelor's degree;Master's degree;Post-master's certificate;Doctor's degree - research/scholarship;Doctor's degree - professional practice, ,City: Large,Yes,-71.10569,42.341259
139,Boston College,Newton Campus,885 Centre Street,Newton,2459, ,NEWTON,(617) 552-8000,164924,PRI,"4-year, Private not-for-profit",Research University,"C, B, PBC, M, PMC, D",Less than one year certificate;Bachelor's degree;Postbaccalaureate certificate;Master's degree;Post-master's certificate;Doctor's degree - research/scholarship;Doctor's degree - professional practice, ,City: Small,Yes,-71.1939545,42.3418121
140,Lasell University, ,1844 Commonwealth Avenue,Newton,2466, ,NEWTON,(617) 243-2000,166391,PRI,"4-year, Private not-for-profit",Liberal Arts College,"B, M",Bachelor's degree;Postbaccalaureate certificate;Master's degree,Business Program,City: Small,Yes,-71.2416458,42.3430405
141,Boston College,Brighton Campus,129 Lake Street,Brighton,2135, ,BOSTON,(617) 552-8000,164924,PRI,"4-year, Private not-for-profit",Research University,"C, B, PBC, M, PMC, D",Less than one year certificate;Bachelor's degree;Postbaccalaureate certificate;Master's degree;Post-master's certificate;Doctor's degree - research/scholarship;Doctor's degree - professional practice, ,City: Small,Yes,-71.16259,42.343956
142,Saint John's Seminary, ,127 Lake Street,Brighton,2135, ,BOSTON,(617) 254-2610,167677,PRI,"4-year, Private not-for-profit",Divinity School,"B, M",Bachelor's degree;Master's degree,Catholic Seminary,City: Large,Yes,-71.162674,42.3443336
143,Benjamin Franklin Cummings Institute of Technology, ,41 Berkeley Street,Boston,2116, ,BOSTON,(617) 423-4630,165884,PRI,"4-year, primarily associate's, Private not-for-profit",Technical College,"C, A, B",Less than one year certificate;Associate's degree;Bachelor's degree, ,City: Large,No,-71.0701294,42.3459854
144,The Boston Conservatory at Berklee, ,8 The Fenway,Boston,2215, ,BOSTON,(617) 536-6340,164748,PRI,"4-year, Private not-for-profit",Performing Arts College,"B, M",One but less than two years certificate;Two but less than 4 years certificate;Bachelor's degree;Postbaccalaureate certificate;Master's degree;Post-master's certificate,Music,City: Large,Yes,-71.090004,42.3461952
145,Berklee College of Music, ,1140 Boylston Street,Boston,2215, ,BOSTON,(617) 266-1400,164748,PRI,"4-year, Private not-for-profit",Performing Arts College,"C, B, PBC, M, PMC",One but less than two years certificate;Two but less than 4 years certificate;Bachelor's degree;Postbaccalaureate certificate;Master's degree;Post-master's certificate,Music,City: Large,Yes,-71.0893784,42.3465652
146,Boston Architectural College, ,320 Newbury Street,Boston,2115, ,BOSTON,(617) 262-5000,164872,PRI,"4-year, Private not-for-profit",Private College,"C, B, M",Less than one year certificate;Bachelor's degree;Master's degree,Architecture,City: Large,No,-71.0857773,42.3484802
147,Boston University,Charles River Campus,1 Silber Way,Boston,2215, ,BOSTON,(617) 353-2000,164988,PRI,"4-year, Private not-for-profit",Research University,"C, B, PBC, M, PMC, D",Less than one year certificate;One but less than two years certificate;Two but less than 4 years certificate;Bachelor's degree;Postbaccalaureate certificate;Master's degree;Post-master's certificate;Doctor's degree - research/scholarship;Doctor's degree, ,City: Large,Yes,-71.099678,42.3495941
148,Tufts University,Boston Campus,145 Harrison Avenue,Boston,2111, ,BOSTON,(617) 636-7000,168148,PRI,"4-year, Private not-for-profit",Research University,"C, B, PBC, M, PMC, D",Less than one year certificate;Bachelor's degree;Postbaccalaureate certificate;Master's degree;Post-master's certificate;Doctor's degree - research/scholarship;Doctor's degree - professional practice, ,Suburb: Large,Yes,-71.0623703,42.3501549
149,Regis College, ,235 Wellesley Street,Weston,2493,1571,WESTON,(781) 768-7000,167598,PRI,"4-year, Private not-for-profit",Liberal Arts College,"A, B, PBC, M, PMC, D",Associate's degree;Bachelor's degree;Postbaccalaureate certificate;Master's degree;Post-master's certificate;Doctor's degree - professional practice, ,Suburb: Large,Yes,-71.3105545,42.3512497
150,Peterson School,Worcester,705 Plantation Street,Worcester,1605, ,WORCESTER,(774) 823-3047, ,PRI,"< 2-year, Private for-profit",Private Occupational Program,C, ,Electric/Plumbing/Facilities,City: Midsize,No,-71.7632523,42.2993774
151,New England Law Boston, ,154 Stuart Street,Boston,2116, ,BOSTON,(617) 451-0010,167215,PRI,"4-year, Private not-for-profit",Law School,D,Doctor's degree - professional practice,Law,City: Large,No,-71.0663986,42.3508301
152,New England College of Optometry, ,424 Beacon Street,Boston,2115, ,BOSTON,(617) 266-2030,167093,PRI,"4-year, Private not-for-profit",Graduate Medical Program,"M, PMC, D",Master's degree;Post-master's certificate;Doctor's degree - professional practice,Optometry,City: Large,No,-71.0868073,42.3518486
153,Emerson College, ,120 Boylston Street,Boston,2116,4624,BOSTON,(617) 824-8500,165662,PRI,"4-year, Private not-for-profit",Private College,"B, M",Bachelor's degree;Master's degree,"Communications, Performing Arts",City: Large,Yes,-71.0652771,42.3519554
154,Urban College of Boston, ,2 Boylston Street,Boston,2116, ,BOSTON,(617) 292-4723,429128,PRI,"2-year, Private not-for-profit",Adult Education,"C, A",Less than one year certificate;Associate's degree, ,City: Large,No,-71.0641861,42.3528976
155,Alexander Academy, ,55 Massachusetts Avenue,Lunenburg,1462, ,LUNENBURG,(978) 345-0011,476735,PRI,"< 2-year, Private for-profit",Private Vocational School,C,One but less than two years certificate,Cosmetology/Barbering,Suburb: Midsize,No,-71.7692108,42.587738
156,Fitchburg State University, ,160 Pearl Street,Fitchburg,1420,2697,FITCHBURG,(978) 345-2151,165820,PUB,"4-year, Public",State University,"C, B, PBC, M, PMC",Less than one year certificate;One but less than two years certificate;Bachelor's degree;Postbaccalaureate certificate;Master's degree;Post-master's certificate,Education,Suburb: Midsize,Yes,-71.7884369,42.5902328
157,North Shore Community College,Danvers,1 Ferncroft Road,Danvers,1923, ,DANVERS,(978) 762-4000,167312,PUB,"2-year, Public",Community College,"C, A",Less than one year certificate;One but less than two years certificate;Associate's degree, ,Suburb: Large,No,-70.9687119,42.5900688
158,Gordon College, ,255 Grapevine Road,Wenham,1984, ,WENHAM,(978) 927-2300,165936,PRI,"4-year, Private not-for-profit",Liberal Arts College,"B, M, PMC",Bachelor's degree;Master's degree;Post-master's certificate, ,Suburb: Large,Yes,-70.8214798,42.5904922
159,Mount Wachusett Community College, ,444 Green Street,Gardner,1440,1000,GARDNER,(978) 632-6600,166957,PUB,"2-year, Public",Community College,"C, A",Less than one year certificate;One but less than two years certificate;Associate's degree, ,Rural: Fringe,No,-71.9839249,42.5932999
160,"Electrology Institute of New England, Inc", ,1501 Main Street,Tewksbury,1876, ,TEWKSBURY,(800) 548-6339,410964,PRI,"< 2-year, Private for-profit",Private Vocational School,C,Less than one year certificate;One but less than two years certificate,Electrolysis/Electrology and Electrolysis Technician,Suburb: Large,No,-71.2208328,42.597477
161,Greenfield Community College, ,1 College Drive,Greenfield,1301, ,GREENFIELD,(413) 775-1000,165981,PUB,"2-year, Public",Community College,"C, A",Less than one year certificate;One but less than two years certificate;Associate's degree, ,Town: Distant,No,-72.6310883,42.599556
162,Gordon-Conwell Theological Seminary,South Hamilton,130 Essex Street,South Hamilton,1982, ,HAMILTON,(978) 468-7111,165945,PRI,"4-year, Private not-for-profit",Divinity School,"PBC, M, D",Postbaccalaureate certificate;Master's degree;Doctor's degree,Evangelical Seminary,Suburb: Large,Yes,-70.8450623,42.6124573
163,Lowell Academy Hairstyling Institute, ,136 Central Street,Lowell,1852, ,LOWELL,(978) 453-3235,166498,PRI,"< 2-year, Private for-profit",Private Vocational School,C,One but less than two years certificate,"Cosmetology/Cosmetologist, General",Suburb: Large,No,-71.3081589,42.6436119
164,Middlesex Community College,Lowell,33 Kearney Square,Lowell,1852, ,LOWELL,(978) 656-3200,166887,PUB,"2-year, Public",Community College,"C, A",Less than one year certificate;One but less than two years certificate;Associate's degree, ,Suburb: Large,No,-71.3066025,42.6445999
165,Greater Lowell Technical School Adult Education, ,250 Pawtucket Boulevard,Tyngsboro,1879, ,TYNGSBOROUGH,(978) 441-4870,382416,PUB,"< 2-year, Public",Adult Education,C,One but less than two years certificate,"Practical Nursing, Vocational Nursing and Nursing Assistants, Other",Suburb: Large,No,-71.3858414,42.6539726
166,University of Massachusetts Lowell,Lowell,1 University Avenue,Lowell,1854,2894,LOWELL,(978) 934-4000,166513,PUB,"4-year, Public",University of Massachusetts,"C, A, B, PBC, M, PMC, D",Less than one year certificate;Associate's degree;Bachelor's degree;Postbaccalaureate certificate;Master's degree;Post-master's certificate;Doctor's degree - research/scholarship;Doctor's degree - professional practice, ,Suburb: Large,Yes,-71.3249435,42.6547699
167,David Nicholas International, ,18 Park Street,Andover,1810, ,ANDOVER,(617) 242-0177, ,PRI,"< 2-year, Private for-profit",Private Vocational School,C, ,Cosmetology,Suburb: Large,No,-71.1396484,42.6566048
168,Merrimack College, ,315 Turnpike Street,North Andover,1845, ,NORTH ANDOVER,(978) 837-5000,166850,PRI,"4-year, Private not-for-profit",Liberal Arts College,"B, M, PMC",Less than one year certificate;Associate's degree;Bachelor's degree;Postbaccalaureate certificate;Master's degree;Post-master's certificate,Business Program,Suburb: Large,Yes,-71.1243362,42.6687546
169,Charles H. McCann Technical School Adult Evening Classes, ,70 Hodges Cross Road,North Adams,1247, ,NORTH ADAMS,(413) 663-5383,419095,PUB,"< 2-year, Public",Adult Education,C,One but less than two years certificate,Licensed Practical/Vocational Nurse Training,Rural: Fringe,No,-73.1007233,42.6642876
170,Massachusetts School of Law, ,500 Federal Street Woodland Park,Andover,1810, ,ANDOVER,(978) 681-0800,369002,PRI,"4-year, Private not-for-profit",Law School,D,Doctor's degree - professional practice,Law,Suburb: Large,No,-71.1996231,42.6820984
171,Spa Tech Institute,North Andover,202 Sutton Street,North Andover,1845, ,NORTH ANDOVER,(978) 620-5250, ,PRI,"< 2-year, Private for-profit",Private Vocational School,C,Less than one year certificate,Aesthetician/Esthetician and Skin Care Specialist,Suburb: Large,No,-71.1318817,42.707592
172,VIP Beauty Academy, ,100 Water Street,Lawrence,1841, ,LAWRENCE,(978) 683-0407, ,PRI,"< 2-year, Private for-profit",Private Vocational School,C, ,Cosmetology,Suburb: Midsize,No,-71.1699371,42.7004051
173,Massachusetts College of Liberal Arts, ,375 Church Street,North Adams,1247,4100,NORTH ADAMS,(413) 662-5000,167288,PUB,"4-year, Public",State University,"C, B, PBC, M, PMC",Less than one year certificate;Bachelor's degree;Postbaccalaureate certificate;Master's degree;Post-master's certificate, ,Town: Fringe,Yes,-73.1034546,42.6916046
174,Northern Essex Community College,Salisbury Satellite Location,80 Elm Street,Salisbury,1952, ,SALISBURY,(978) 556-3000,167376,PUB,"2-year, Public",Community College,"C, A",Less than one year certificate;One but less than two years certificate;Associate's degree, ,Suburb: Large,No,-70.873764,42.8426514
175,Northern Essex Community College,Lawrence,45 Franklin Street,Lawrence,1840, ,LAWRENCE,(978) 738-7000,167376,PUB,"2-year, Public",Community College,"C, A",Less than one year certificate;One but less than two years certificate;Associate's degree, ,Suburb: Large,No,-71.16745,42.7073021
176,Lawrence Training School, ,530 Broadway Street,Lawrence,1841, ,LAWRENCE,(978) 794-0449, ,PRI,"< 2-year, Private for-profit",Technical Institute,C, ,Cosmetology,Suburb: Midsize,No,-71.1768036,42.7148972
177,Williams College, ,880 Main Street,Williamstown,1267, ,WILLIAMSTOWN,(413) 597-2211,168342,PRI,"4-year, Private not-for-profit",Liberal Arts College,"B, M",Bachelor's degree;Master's degree, ,Town: Fringe,Yes,-73.2029419,42.7127647
178,New England Tractor Trailer Training School of Massachusetts,North Andover,1600 Osgood Street,North Andover,1845,1048,NORTH ANDOVER,(978) 965-2969,468963,PRI,"< 2-year, Private for-profit",Technical Institute,C,Less than one year certificate;One but less than two years certificate,Truck and Bus Driver/Commercial Vehicle Operator and Instructor,Suburb: Large,No,-71.1164246,42.7311211
179,Northpoint Bible College, ,320 South Main Street,Haverhill,1835, ,HAVERHILL,(978) 478-3400,217606,PRI,"4-year, Private not-for-profit",Divinity School,"C, A, B, M",One but less than two years certificate;Associate's degree;Bachelor's degree;Master's degree,Pentecostal Ministry,Suburb: Large,Yes,-71.0792847,42.7650909
180,Northern Essex Community College,Haverhill,100 Elliott Street,Haverhill,1830, ,HAVERHILL,(978) 556-3000,167376,PUB,"2-year, Public",Community College,"C, A",Less than one year certificate;One but less than two years certificate;Associate's degree, ,Suburb: Large,No,-71.0473709,42.7964706
181,Harvard University,Main Campus,8 Garden Street/Radcliffe Yard,Cambridge,2138, ,CAMBRIDGE,(617) 495-1000,166027,PRI,"4-year, Private not-for-profit",Liberal Arts College,"A, B, PBC, M, PMC, D",Less than one year certificate;Associate's degree;Bachelor's degree;Postbaccalaureate certificate;Master's degree;Post-master's certificate;Doctor's degree - research/scholarship;Doctor's degree - professional practice, ,City: Midsize,Yes,-71.1210403,42.3757858
182,Harvard University,Graduate School of Design,48 Quincy Street,Cambridge,2138, ,CAMBRIDGE,(617) 495-3880,166027,PRI,"4-year, Private not-for-profit",Research University,"A, B, PBC, M, PMC, D",Less than one year certificate;Associate's degree;Bachelor's degree;Postbaccalaureate certificate;Master's degree;Post-master's certificate;Doctor's degree - research/scholarship;Doctor's degree - professional practice, ,City: Midsize,Yes,-71.1139526,42.3758392
183,Bunker Hill Community College,Charlestown,250 New Rutherford Avenue,Boston,2129,2925,BOSTON,(617) 228-2000,165112,PUB,"2-year, Public",Community College,"C, A",Less than one year certificate;Associate's degree, ,City: Large,No,-71.0694427,42.3754768
184,Longy School of Music of Bard College, ,27 Garden Street,Cambridge,2138, ,CAMBRIDGE,(617) 876-0956,166489,PRI,"4-year, Private not-for-profit",Performing Arts College,"C, PBC, M, PMC",Two but less than 4 years certificate;Postbaccalaureate certificate;Master's degree;Post-master's certificate,Music,City: Midsize,No,-71.1234131,42.3785286
185,Harvard University,Law School,1585 Massachusetts Avenue,Cambridge,2138, ,CAMBRIDGE,(617) 496-8214,166027,PRI,"4-year, Private not-for-profit",Research University,"A, B, PBC, M, PMC, D",Less than one year certificate;Associate's degree;Bachelor's degree;Postbaccalaureate certificate;Master's degree;Post-master's certificate;Doctor's degree - research/scholarship;Doctor's degree - professional practice, ,City: Midsize,Yes,-71.1188354,42.3790665
186,Lesley University, ,29 Everett Street,Cambridge,2138,2790,CAMBRIDGE,(617) 868-9600,166452,PRI,"4-year, Private not-for-profit",Private University,"C, A, B, PBC, M, PMC, D",Associate's degree;Two but less than 4 years certificate;Bachelor's degree;Postbaccalaureate certificate;Master's degree;Post-master's certificate;Doctor's degree - research/scholarship,Education Program,City: Midsize,Yes,-71.1172943,42.3802834
187,East Boston Beauty Academy, ,4 Neptune Road,Boston,2128, ,BOSTON,(617) 569-2590, ,PRI,"< 2-year, Private for-profit",Private Vocational School,C, ,Cosmetology,City: Large,No,-71.025444,42.3802795
188,Harvard-Smithsonian,Center for Astrophysics,60 Garden Street,Cambridge,2138, ,CAMBRIDGE,(617) 495-7461,166027,PRI,"4-year, Private not-for-profit",Research University,"A, B, PBC, M, PMC, D",Less than one year certificate;Associate's degree;Bachelor's degree;Postbaccalaureate certificate;Master's degree;Post-master's certificate;Doctor's degree - research/scholarship;Doctor's degree - professional practice, ,City: Midsize,Yes,-71.128006,42.3815384
189,Shawsheen Valley School of Practical Nursing, ,100 Cook Street,Billerica,1821, ,BILLERICA,(978) 667-2111,412535,PUB,"< 2-year, Public",Adult Education,C,One but less than two years certificate,Licensed Practical/Vocational Nurse Training,Suburb: Large,No,-71.2180328,42.5476608
190,Montserrat College of Art, ,23 Essex Street,Beverly,1915, ,BEVERLY,(978) 922-8222,166911,PRI,"4-year, Private not-for-profit",Visual Arts College,B,Bachelor's degree,Visual Arts,Suburb: Large,Yes,-70.8761292,42.55019
191,Endicott College, ,376 Hale Street,Beverly,1915, ,BEVERLY,(978) 927-0585,165699,PRI,"4-year, Private not-for-profit",Liberal Arts College,"C, A, B, PBC, M, PMC, D",Less than one year certificate;Associate's degree;Bachelor's degree;Postbaccalaureate certificate;Master's degree;Post-master's certificate;Doctor's degree - research/scholarship, ,Suburb: Large,Yes,-70.843338,42.55336
192,Montachusett Regional Vocational Technical School Practical Nursing Program, ,1050 Westminster Street,Fitchburg,1420, ,FITCHBURG,(978) 345-9200,433040,PUB,"< 2-year, Public",Medical Program,C,One but less than two years certificate,Licensed Practical/Vocational Nurse Training,Suburb: Midsize,No,-71.8608093,42.5606804
193,University of Massachusetts Amherst,Main Campus,181 Presidents Drive,Amherst,1003,9291,AMHERST,(413) 545-0111,166629,PUB,"4-year, Public",University of Massachusetts,"C, A, B, PBC, M, D",Less than one year certificate;Associate's degree;Bachelor's degree;Postbaccalaureate certificate;Master's degree;Post-master's certificate;Doctor's degree - research/scholarship;Doctor's degree - professional practice, ,Suburb: Large,Yes,-72.5266113,42.3859673
194,Lincoln Technical Institute,Somerville,5 Middlesex Avenue,Somerville,2145, ,SOMERVILLE,(617) 776-3500,165556,PRI,"< 2-year, Private for-profit",Technical Institute,C,Less than one year certificate;One but less than two years certificate,Medical/Clinical Assistant,Suburb: Large,No,-71.0824051,42.3910599
195,Tufts University,Medford/Somerville Campus,419 Boston Avenue,Medford,2155, ,MEDFORD,(617) 628-5000,168148,PRI,"4-year, Private not-for-profit",Research University,"C, B, PBC, M, PMC, D",Less than one year certificate;Bachelor's degree;Postbaccalaureate certificate;Master's degree;Post-master's certificate;Doctor's degree - research/scholarship;Doctor's degree - professional practice, ,Suburb: Large,Yes,-71.1183472,42.4085083
196,Flavia Leal Beauty School,Everett,20 Chelsea Street,Everett,2149, ,EVERETT,(781) 995-4009, ,PRI,"< 2-year, Private for-profit",Private Vocational School,C, ,Cosmetology,City: Small,No,-71.0545502,42.4067688
197,Elizabeth Grady School of Esthetics and Massage Therapy, ,222 Boston Avenue,Medford,2155, ,MEDFORD,(781) 391-9380,362782,PRI,"< 2-year, Private for-profit",Private Vocational School,C,Less than one year certificate,Aesthetician/Esthetician and Skin Care Specialist,Suburb: Large,No,-71.1261749,42.4147873
198,Northeastern University,Coastal Sustainability Institute,430 Nahant Road,Nahant,1908, ,NAHANT,(781) 581-7370,167358,PRI,"4-year, Private not-for-profit",Research University,"B, M, PMC, D",Bachelor's degree;Master's degree;Post-master's certificate;Doctor's degree - research/scholarship;Doctor's degree - professional practice;Doctor's degree - other, ,City: Large,Yes,-70.9073334,42.4184227
199,Lawrence Memorial Hospital/Regis College School of Nursing, ,170 Governors Avenue,Medford,2155, ,MEDFORD,(781) 306-6600,166407,PRI,"2-year, Private not-for-profit",Medical Program,A,Associate's degree,Licensed Practical/Vocational Nurse Training,Suburb: Large,No,-71.1110992,42.4262238
200,Blessing Channels Nail Academy, ,"76 Winn Street, #1C",Woburn,1801, ,WOBURN,(781) 729-8868, ,PRI,"< 2-year, Private for-profit",Private Vocational School,C, ,Cosmetology,Suburb: Large,No,-71.1556168,42.4821777
201,Woburn Electrical School, ,14 Orange Street,Woburn,1801, ,WOBURN,(781) 223-1924, ,PRI,"< 2-year, Private for-profit",Private Occupational Program,C, ,Electrician,Suburb: Large,No,-71.125061,42.4838181
202,Catherine Hinds Institute of Esthetics, ,300 Wildwood Avenue,Woburn,1801, ,WOBURN,(781) 935-3344,165255,PRI,"< 2-year, Private for-profit",Private Vocational School,C,Less than one year certificate;One but less than two years certificate,Master Aesthetician/Esthetician,Suburb: Large,No,-71.137146,42.4932709
203,Millennium Training Institute, ,600 West Cummings Park,Woburn,1801, ,WOBURN,(888) 388-9981,451264,PRI,"< 2-year, Private for-profit",Technical Institute,C,Less than one year certificate,Accounting Technology/Technician and Bookkeeping,Suburb: Large,No,-71.1273956,42.4957008
204,Flavia Leal Beauty School,Woburn,36 Cummings Park,Woburn,1801, ,WOBURN,(781) 995-4009, ,PRI,"< 2-year, Private for-profit",Private Vocational School,C, ,Cosmetology,Suburb: Large,No,-71.1244888,42.498455
205,Hair's How, ,99 Preston Street,Wakefield,1880, ,WAKEFIELD,(781) 224-4800, ,PRI,"< 2-year, Private for-profit",Private Vocational School,C, ,Cosmetology,Suburb: Small,No,-71.0602722,42.5035133
206,Salem State University, ,352 Lafayette Street,Salem,1970,5353,SALEM,(978) 542-6000,167729,PUB,"4-year, Public",State University,"B, PBC, M, PMC",Bachelor's degree;Postbaccalaureate certificate;Master's degree;Post-master's certificate, ,Suburb: Large,Yes,-70.890358,42.5036125
207,Conway School of Landscape Design,Main Campus,88 Village Hill Road,Northampton,1060, ,NORTHAMPTON,(413) 369-4044,165495,PRI,"4-year, Private not-for-profit",Graduate Landscape Program,M,Master's degree,Landscape Design,Suburb: Large,No,-72.6487732,42.3138046
208,Middlesex Community College,Bedford,591 Springs Road,Bedford,1730, ,BEDFORD,(781) 280-3200,166887,PUB,"2-year, Public",Community College,"C, A",Less than one year certificate;One but less than two years certificate;Associate's degree, ,Suburb: Large,No,-71.2741318,42.5245972
209,University of Massachusetts Dartmouth School for Marine Science and Technology,New Bedford - East,836 South Rodney French Boulevard,New Bedford,2744,1221,NEW BEDFORD,(508) 999-8193,167987,PUB,"4-year, Public",University of Massachusetts,"C, B, PBC, M, PMC, D",Less than one year certificate;One but less than two years certificate;Bachelor's degree;Postbaccalaureate certificate;Master's degree;Post-master's certificate;Doctor's degree - research/scholarship;Doctor's degree - professional practice,Marine Science & Technology,Suburb: Midsize,Yes,-70.9066849,41.5960197
210,Cape Cod Community College Adult and Continuing Education - Martha's Vineyard,Martha's Vineyard,100 Edgartown Vineyard Haven Road,Oak Bluffs,2557, ,OAK BLUFFS,(508) 367-5792,165194,PUB,"2-year, Public",Community College,"C, A",Less than one year certificate;Associate's degree, ,City: Small,No,-70.5955963,41.4183655
211,Cape Cod Community College,Plymouth Municipal Airport,246 South Meadow Road,Plymouth,2360, ,PLYMOUTH,(508) 362-2131,165194,PUB,"2-year, Public",Community College,"C, A",Less than one year certificate;Associate's degree, ,City: Small,No,-70.7327499,41.909935
212,Cape Cod Community College,Burnell Hall at Bridgewater State,66 Hooper Street,Bridgewater,2325, ,BRIDGEWATER,(508) 362-2131,165194,PUB,"2-year, Public",Community College,"C, A",Less than one year certificate;Associate's degree, ,City: Small,No,-70.9650574,41.9895172
213,Bunker Hill Community College,Chelsea,70 Everett Avenue,Chelsea,2150,2917,CHELSEA,(617) 228-2101,165112,PUB,"2-year, Public",Community College,"C, A",Less than one year certificate;Associate's degree, ,City: Large,No,-71.0406113,42.3929672
214,Millennium Training Institute,Dorchester/Milton Satellite Location,2 Granite Avenue,Milton,2186, ,MILTON,(888) 388-9981,451264,PRI,"< 2-year, Private for-profit",Technical Institute,C,Less than one year certificate,Accounting Technology/Technician and Bookkeeping,Suburb: Large,No,-71.051712,42.2769508
215,Gould Construction Institute,Burlington,"200 Wheeler Road, North Tower 4th Floor",Burlington,1803, ,BURLINGTON,(781) 270-9990, ,PRI,"< 2-year, Private for-profit",Private Occupational Program,C, ,Electrician,Suburb: Small,No,-71.2164688,42.4748878
216,Porter And Chester Institute,Brockton,609 Belmont Street,Brockton,2301, ,BROCKTON,(774) 360-8300, ,PRI,"< 2-year, Private for-profit",Technical Institute,C,One but less than two years certificate, ,Suburb: Large,No,-71.0447083,42.0732193
